Company Name,Address,City,State,Zip Code,Primary SIC Description
Heritage Labs,605 E Algonquin Rd # 180,Arlington Hts,IL,60005,Laboratories-Dental
Northwest Dental Studio,7049 W Addison St,Chicago,IL,60634,Laboratories-Dental
Hi-Point Dental Lab,5104 Tollview Dr # A,Rolling Meadows,IL,60008,Laboratories-Dental
Popp Dental Lab,5701 Broad St,Greendale,WI,53129,Laboratories-Dental
American Dental Products Inc,603 Country Club Dr # B,Bensenville,IL,60106,Laboratories-Dental
Westbrook Dental Studio Inc,1200 Highridge Pkwy,Westchester,IL,60154,Laboratories-Dental
Korus Dental Solution,2600 Washington Blvd,Bellwood,IL,60104,Laboratories-Dental
Accudent Dental Laboratories,1930 177th St,Lansing,IL,60438,Laboratories-Dental
Cosmetic Dental Studio Inc,5732 N Western Ave,Chicago,IL,60659,Laboratories-Dental
Integrity Dental Designs Inc,14185 W Oak Ave,Lake Forest,IL,60045,Laboratories-Dental
Saber Dental Studio,803 W College Ave,Waukesha,WI,53186,Laboratories-Dental
Smile Dental Studio Glenview,1971 Tower Dr #d12a,Glenview,IL,60026,Laboratories-Dental
New Smile Ctr,9201 Broadway Ave,Brookfield,IL,60513,Laboratories-Dental
Cad Cam Dental Prosthetics,817 W Morris Ave,Addison,IL,60101,Laboratories-Dental
Winnetka Dental Arts,570 Lincoln Ave # 3,Winnetka,IL,60093,Laboratories-Dental
Qualident Dental Lab,500 Ashland Ave #c,Chicago Heights,IL,60411,Laboratories-Dental
Lighthouse Dental Studio,1101 S Airline Rd,Mt Pleasant,WI,53406,Laboratories-Dental
Prosthotech Dental Lab,769 N Heartland Dr # C,Sugar Grove,IL,60554,Laboratories-Dental
Modern Dental Laboratory Usa,6325 N Milwaukee Ave,Chicago,IL,60646,Laboratories-Dental
Elite Dental Studio,15340 Watertown Plank Rd # 1,Elm Grove,WI,53122,Laboratories-Dental
Bennett Technologies Inc,17049 Harlem Ave,Tinley Park,IL,60477,Laboratories-Dental
Maroney Dental Lab,2602 E Oklahoma Ave,Milwaukee,WI,53207,Laboratories-Dental
Nu-Art Dental Lab Inc,160 Bishops Way,Brookfield,WI,53005,Laboratories-Dental
Ceramident,30 N Michigan Ave # 1617,Chicago,IL,60602,Laboratories-Dental
D & S Dental Lab,7420 W Forest Home Ave,Milwaukee,WI,53220,Laboratories-Dental
Greenfield Dental Laboratory,2778 S 35th St # 10,Milwaukee,WI,53215,Laboratories-Dental
Eccentric Dental Laboratory,6215 W Touhy Ave,Chicago,IL,60646,Laboratories-Dental
Capitol Dental Laboratory Inc,N91w17151 Appleton Ave,Menomonee Falls,WI,53051,Laboratories-Dental
Chain O'lake Dental Lab,37669 N Il Route 59,Lake Villa,IL,60046,Laboratories-Dental
Quality Dental Ceramics,9933 Lawler Ave # 440,Skokie,IL,60077,Laboratories-Dental
Satisfaction Dental Laboratory,161 N Edison Ave,Elgin,IL,60123,Laboratories-Dental
Ed Campbell's Dental Lab,1645 Irving Park Rd # 102,Hanover Park,IL,60133,Laboratories-Dental
W R Petrie Dental Lab Ltd,22333 Governors Hwy,Richton Park,IL,60471,Laboratories-Dental
Popp Dental Laboratory Inc,4401 Taylor Ave #101,Mt Pleasant,WI,53405,Laboratories-Dental
Lakeside Dental Laboratory Inc,4771 S Packard Ave,Cudahy,WI,53110,Laboratories-Dental
J F Polcyn Dental Lab,9709 Southwest Hwy,Oak Lawn,IL,60453,Laboratories-Dental
Precision Prosthodontic Lab,25 E Washington St # 2010,Chicago,IL,60602,Laboratories-Dental
Ancer Dental Lab,5789 N Lincoln Ave,Chicago,IL,60659,Laboratories-Dental
Merrimac Dental Laboratory Inc,37w391 Keslinger Rd,Geneva,IL,60134,Laboratories-Dental
Layton Dental Lab Inc,N82w28709 Audrey Dr,Hartland,WI,53029,Laboratories-Dental
Geneva Dental Laboratory,102 N 4th St,Geneva,IL,60134,Laboratories-Dental
Centric Dental Laboratory,450 Shepard Dr,Elgin,IL,60123,Laboratories-Dental
Wheeling Denture Studio,144 Berkshire Dr,Wheeling,IL,60090,Laboratories-Dental
Diamond Dental Lab,200 Howard Ave # 254,Des Plaines,IL,60018,Laboratories-Dental
Bio-Tech Prosthetics,1112 E Central Rd # 3,Arlington Hts,IL,60005,Laboratories-Dental
Mc Dental Lab,515 Glenview Ave # E,Wauwatosa,WI,53213,Laboratories-Dental
Muggli Dental Studio,7101 N Green Bay Ave # 5,Milwaukee,WI,53209,Laboratories-Dental
Novaks Dental Laboratory,5600 Fairmount Ave,Downers Grove,IL,60516,Laboratories-Dental
Du Page Dental Laboratory Ltd,483 W Wrightwood Ave,Elmhurst,IL,60126,Laboratories-Dental
Rite Fit Dentures,726 S Milwaukee Ave,Wheeling,IL,60090,Laboratories-Dental
Aurora Dental Lab,36 S Stolp Ave,Aurora,IL,60506,Laboratories-Dental
Preferred Removal Svc,1026 Prairie St,Aurora,IL,60506,Laboratories-Dental
Dove Dental Studio,7925 Lincoln Ave,Skokie,IL,60077,Laboratories-Dental
Graser Dental Lab,168 Webster Pl,Vernon Hills,IL,60061,Laboratories-Dental
Olivier Tric Dental Laboratory,111 N Addison Ave # B,Elmhurst,IL,60126,Laboratories-Dental
Duarte Dental Lab,2413 N Cicero Ave,Chicago,IL,60639,Laboratories-Dental
Nik Dental Lab Llc,PO Box 95,Pewaukee,WI,53072,Laboratories-Dental
Zig Dental Laboratory,5520 W Belmont Ave,Chicago,IL,60641,Laboratories-Dental
Lee Dental Laboratory,188 W Industrial Dr # 130,Elmhurst,IL,60126,Laboratories-Dental
Holz Dental Lab,5521 County Farm Rd,Hanover Park,IL,60133,Laboratories-Dental
Precision Dental Castings Inc,4528 Oakton St,Skokie,IL,60076,Laboratories-Dental
Paragon Ceramix Studio,502 Zenith Dr,Glenview,IL,60025,Laboratories-Dental
Northwest Dental Studio Inc,1010 S Arlington Heights # 2,Arlington Hts,IL,60005,Laboratories-Dental
H Robert Pawlowski Dental Lab,419 S Fordham Ave,Aurora,IL,60506,Laboratories-Dental
Euro Tech Dental Lab Inc,2434 E Dempster St # 207,Des Plaines,IL,60016,Laboratories-Dental
Nemec Dental Laboratory,4316 Saint Charles Rd,Bellwood,IL,60104,Laboratories-Dental
Tamarac Dental Laboratory,888 S Edgelawn Dr # 1723,Aurora,IL,60506,Laboratories-Dental
Lakeside Dental Laboratory,96 W Moreland Ave # 25b,Addison,IL,60101,Laboratories-Dental
C B & C Dental Laboratory,3518 Wenonah Ave,Berwyn,IL,60402,Laboratories-Dental
A American Dental Creations,165 W 10th St # 1,Chicago Heights,IL,60411,Laboratories-Dental
Arthur J Schroeder & Sons Inc,634 Anthony Trl,Northbrook,IL,60062,Laboratories-Dental
Ed Dental Lab,6317 Fairview Ave # 1,Westmont,IL,60559,Laboratories-Dental
Johnson's Dental Casting,9103 S Ashland Ave,Chicago,IL,60620,Laboratories-Dental
B & C Dental Lab,1459 W 103rd St,Chicago,IL,60643,Laboratories-Dental
Creative Dental Ceramics,110 S River Rd # 4,Des Plaines,IL,60016,Laboratories-Dental
Ultra Dental Studio Inc,6124 S Kilkenny Dr,Crystal Lake,IL,60014,Laboratories-Dental
Aj Enterprises,432 Balmoral Dr,Mundelein,IL,60060,Laboratories-Dental
Prime Dental Studio,1920 Raymond Dr,Northbrook,IL,60062,Laboratories-Dental
K Vista Dental Laboratory,2140 Scotch Pine Ln,Northbrook,IL,60062,Laboratories-Dental
Lagers Dental Lab,2645 N Mayfair Rd # 220,Wauwatosa,WI,53226,Laboratories-Dental
A & B Orthodontic Lab,5031 Warren St,Skokie,IL,60077,Laboratories-Dental
Nitram Technologies Inc,5049 N Ridgeway Ave #1,Chicago,IL,60625,Laboratories-Dental
Hansen Incarnati Dental Lab,181 W Irving Park Rd,Roselle,IL,60172,Laboratories-Dental
Vivotech Dental Lab,2422 Grand Ave,Waukegan,IL,60085,Laboratories-Dental
Oral Engineers,6201 W Howard St,Niles,IL,60714,Laboratories-Dental
Everyone's Family Dental St,1400 Lincoln Hwy,St Charles,IL,60174,Laboratories-Dental
Petritsch Dental Laboratory,48 N Woodland Trl,Palos Park,IL,60464,Laboratories-Dental
Horizon Dental Lab,8424 Skokie Blvd # 204,Skokie,IL,60077,Laboratories-Dental
Aiken Orthodontic Lab Llc,818 Lombard Ave,Racine,WI,53402,Laboratories-Dental
M C Dental Laboratory,1721 W Cottonwood Trl,Hoffman Estates,IL,60192,Laboratories-Dental
Rockert Dental Studio,320 E Liberty Dr,Wheaton,IL,60187,Laboratories-Dental
Metro Dental Lab,2323 Downing Ave,Westchester,IL,60154,Laboratories-Dental
Greg Gough Dental Lab,2473 S Crescent Ln,Aurora,IL,60504,Laboratories-Dental
Cerama-Lab,17732 Oak Park Ave # C,Tinley Park,IL,60477,Laboratories-Dental
Maine Dental Laboratory,832 E Rand Rd #21,Mt Prospect,IL,60056,Laboratories-Dental
Bright Dental Lab,2434 E Dempster St # 203,Des Plaines,IL,60016,Laboratories-Dental
Ora Dental Studio-South Loop,1827 S Michigan Ave,Chicago,IL,60616,Laboratories-Dental
Crowley Alexius J Dds Ltd,1560 Robin Rd,Bannockburn,IL,60015,Laboratories-Dental
Roberts Orthodontic Lab Inc,941 Perkins Dr,Mukwonago,WI,53149,Laboratories-Dental
Lira's Dental,700 Willow Ln # F,Sleepy Hollow,IL,60118,Laboratories-Dental
Dentlab,3942 W 111th St,Chicago,IL,60655,Laboratories-Dental
Unique Dental Studio,13635 Kelton Ct,New Berlin,WI,53151,Laboratories-Dental
Modern Dental Laboratory Usa,2249 Avalon Dr,Buffalo Grove,IL,60089,Laboratories-Dental
Nu-Tech Dental Lab Inc,2255 Elmira Ave,Des Plaines,IL,60018,Laboratories-Dental
Blooming Smiles Dental Studio,156 E Lake St #a,Bloomingdale,IL,60108,Laboratories-Dental
Joanna's Dental Laboratory,570 E Northwest Hwy # 3,Des Plaines,IL,60016,Laboratories-Dental
Takigahira Dental Laboratory,521 Zenith Dr,Glenview,IL,60025,Laboratories-Dental
Falls Dental Lab Inc,N88w17015 Main St # 103,Menomonee Falls,WI,53051,Laboratories-Dental
Jade Dental Laboratory,37w391 Keslinger Rd,Geneva,IL,60134,Laboratories-Dental
Zodiac Denture Repair Lab,1825 E Roosevelt Rd,Wheaton,IL,60187,Laboratories-Dental
Recilles Dental Lab,4611 N Western Ave,Chicago,IL,60625,Laboratories-Dental
Super Dental Lab,1635 W Wise Rd # 5,Schaumburg,IL,60193,Laboratories-Dental
Jcw Dental Dimensions Ltd,8 Clipper Ct,Third Lake,IL,60030,Laboratories-Dental
Klepacki J A Dental Lab Ltd,122 E Chicago Ave,Westmont,IL,60559,Laboratories-Dental
L K Creations,28822 Plank Rd,Burlington,WI,53105,Laboratories-Dental
Progress Porcelain,5135 Dempster St #1,Skokie,IL,60077,Laboratories-Dental
Bennett Dental Laboratory Inc,7221 W 103rd St,Palos Hills,IL,60465,Laboratories-Dental
Korona Dental Laboratory Inc,636 Church St # 618,Evanston,IL,60201,Laboratories-Dental
Edens Dental Lab,8100 W Oakton St # 2,Niles,IL,60714,Laboratories-Dental
Ideal Dental Laboratory,6212 W Grand Ave,Chicago,IL,60639,Laboratories-Dental
Wand Dental Lab,2600 Washington Blvd #d,Bellwood,IL,60104,Laboratories-Dental
Parris Dental Lab,3331 W Flournoy St,Chicago,IL,60624,Laboratories-Dental
Abel Dental Lab,11102 S Natoma Ave,Worth,IL,60482,Laboratories-Dental
Baltic Dental Laboratory,1074 S Roselle Rd,Schaumburg,IL,60193,Laboratories-Dental
Fidelity Dental Works,111 Lions Dr,Barrington,IL,60010,Laboratories-Dental
Studio Of Master's Touch,307 S Milwaukee Ave # 107,Wheeling,IL,60090,Laboratories-Dental
S & E Dental Studio,3260 Covington Ln,Algonquin,IL,60102,Laboratories-Dental
Ora Dental Studio,326 W Illinois St,Chicago,IL,60654,Laboratories-Dental
Ibarra Dental Lab,13357 Olde Western Ave,Blue Island,IL,60406,Laboratories-Dental
Midtown Dental Lab Llc,8726 W North Ave,Milwaukee,WI,53226,Laboratories-Dental
Mt Dent Inc,5745 Keeney St,Morton Grove,IL,60053,Laboratories-Dental
Cnc Dental Prosthetics,1005 S Evergreen Ave,Arlington Hts,IL,60005,Laboratories-Dental
Precious Art Dental Lab Inc,5132 N Harlem Ave,Harwood Heights,IL,60706,Laboratories-Dental
Floss Dental Studios,957 S Mannheim Rd #1n,Westchester,IL,60154,Laboratories-Dental
Nik Dental Lab Llc,215 Oakton Ave,Pewaukee,WI,53072,Laboratories-Dental
Lee Dental Studio Inc,1650 W Algonquin Rd,Hoffman Estates,IL,60192,Laboratories-Dental
Allcast Dental Group Lab,3812 N Kedzie Ave,Chicago,IL,60618,Laboratories-Dental
Durable Dental Lab,5050 Newport Dr # 7,Rolling Meadows,IL,60008,Laboratories-Dental
Cosmera Dental Lab,25679 N Hillview Ct,Mundelein,IL,60060,Laboratories-Dental
Expert Dental Ceramics,3770 W Devon Ave,Lincolnwood,IL,60712,Laboratories-Dental
Micro Smart Dental Lab,1019 W Wise Rd # 101,Schaumburg,IL,60193,Laboratories-Dental
William's Dental Laboratory,2061 Monday Dr,Elgin,IL,60123,Laboratories-Dental
Jacob,300 Skokie Valley Rd,Highland Park,IL,60035,Laboratories-Dental
Premier Dental Lab,5099 Kingston Dr,Hoffman Estates,IL,60010,Laboratories-Dental
Washington Dental Studio,10735 Clocktower Dr # 303,La Grange Hlds,IL,60525,Laboratories-Dental
Lsk 121 Oral Prosthetics Labs,940 E Diehl Rd,Naperville,IL,60563,Laboratories-Dental
Chain Olakes Dental Lab,503 E Algonquin Rd,Algonquin,IL,60102,Laboratories-Dental
First Impression Dental Lab,931 W Wise Rd,Schaumburg,IL,60193,Laboratories-Dental
Good News Dental Lab,415 E Potter St,Wood Dale,IL,60191,Laboratories-Dental
12 Group Inc,462 N Mclean Blvd,Elgin,IL,60123,Laboratories-Dental
Lani Dental Laboratory Llc,255 E Lake St #104,Bloomingdale,IL,60108,Laboratories-Dental
Opudent Inc,1020 W Glen Flora Ave # 201,Waukegan,IL,60085,Laboratories-Dental
Dental Laboratory Inc,3309 N Central Ave,Chicago,IL,60634,Laboratories-Dental
Roland's Dental Ceramics,37 E Logan St,Lemont,IL,60439,Laboratories-Dental
Advanced Dental Studio,845 N Michigan Ave # 943w,Chicago,IL,60611,Laboratories-Dental
Horizon Dental Laboratory,4849 Main St # 1e,Skokie,IL,60077,Laboratories-Dental
Oral Kare Dental Lab Inc,3224 W Bryn Mawr Ave,Chicago,IL,60659,Laboratories-Dental
Accurtek Dental Ceramic Inc,830 E Rand Rd # 5,Mt Prospect,IL,60056,Laboratories-Dental
Alex's Ceramic Studio,1772 Camden Dr,Glenview,IL,60025,Laboratories-Dental
Plaza Dental Laboratory,51 Sherwood Ter,Lake Bluff,IL,60044,Laboratories-Dental
R K Dental Studios,648 80th St,Downers Grove,IL,60516,Laboratories-Dental
Marcus Denture Studio,6110 Dempster St,Morton Grove,IL,60053,Laboratories-Dental
Backal Dental Laboratory,12800 S Ridgeland Ave #g,Palos Heights,IL,60463,Laboratories-Dental
Advanced Dental Ceramics,1308 S Main St,Algonquin,IL,60102,Laboratories-Dental
M B Denture Studio,6774 N Northwest Hwy # 1c,Chicago,IL,60631,Laboratories-Dental
Dental Craft Studio,0s159 Church St,Winfield,IL,60190,Laboratories-Dental
Dental Arts Laboratories,107 Schelter Rd,Lincolnshire,IL,60069,Laboratories-Dental
Preferred Dental Svc,314 S Main St,Bartlett,IL,60103,Laboratories-Dental
Qualitech Inc,414 75th St,Downers Grove,IL,60516,Laboratories-Dental
Tooth Creations Inc,14154 Cicero Ave,Crestwood,IL,60418,Laboratories-Dental
Quas Dental Lab,253 N York St,Elmhurst,IL,60126,Laboratories-Dental
Brar Dentistry,300 Randall Rd,South Elgin,IL,60177,Denturists
Hampton Dental Assoc Sc,5323 W Hampton Ave,Milwaukee,WI,53218,Denturists
Bargeway Plaza,1398 Lilac Ln,Addison,IL,60101,Denturists
Doctors Denture Systems,601 N Grand Ave,Waukesha,WI,53186,Denturists
Cambridge Dental Care,17853 80th Ave,Tinley Park,IL,60477,Denturists
Dent-Sure Dental Svc P C,3942 W 111th St,Chicago,IL,60655,Denturists
Family Dentist,3855 W North Ave,Chicago,IL,60647,Denturists
Envision A Smile,2019 Dean St,St Charles,IL,60174,Denturists
Eon Clinics,20700 Swenson Dr # 150,Waukesha,WI,53186,Dental Implants-Prosthesis
Winterset Dental Care Pc,10727 W 159th St,Orland Park,IL,60467,Dental Implants-Prosthesis
Premier Dental-Implant Ctr Pc,15110 Windsor Dr,Orland Park,IL,60462,Dental Implants-Prosthesis
Art Carpenter Dds Ltd,450 Green Bay Rd # A,Kenilworth,IL,60043,Dental Implants-Prosthesis
Brand New Smile Dental Implant,261 N Randall Rd #102,Lake In the Hls,IL,60156,Dental Implants-Prosthesis
Northwestern Dental Group,7886 N Milwaukee Ave,Niles,IL,60714,Dental Implants-Prosthesis
Connell Patrick J Dds Sc,S79w18900 Janesville Rd,Muskego,WI,53150,Dental Implants-Prosthesis
Millennium Park Oral Surgery,25 E Washington St # 825,Chicago,IL,60602,Dental Implants-Prosthesis
Clear Choice Chicago,630 W Washington Blvd,Chicago,IL,60661,Dental Implants-Prosthesis
Eon Clinics,1585 Barrington Rd # 301,Hoffman Estates,IL,60169,Dental Implants-Prosthesis
Periodontal & Implant Specs,6715 W Archer Ave,Chicago,IL,60638,Dental Implants-Prosthesis
Clearchoice Dental Implant Ctr,200 S Michigan Ave # 1400,Chicago,IL,60604,Dental Implants-Prosthesis
